NORAD_CAT_ID,OBJECT_NAME,OBJECT_TYPE,EPOCH,MEAN_MOTION,ECCENTRICITY,INCLINATION,RA_OF_ASC_NODE,ARG_OF_PERICENTER,MEAN_ANOMALY,BSTAR,MEAN_MOTION_DOT,MEAN_MOTION_DDOT,TLE_LINE0,TLE_LINE1,TLE_LINE2,SEMIMAJOR_AXIS,PERIOD,APOGEE,PERIGEE,DECAYED
51113.0,STARLINK-3372,PAYLOAD,2023-04-22 00:01:08,15.08850799,0.000111,53.2155,334.826,93.5254,266.5865,0.00052196,8.031e-05,0.0,0 STARLINK-3372,1 51113U 22005K   23112.00078797  .00008031  00000-0  52196-3 0  9995,2 51113  53.2155 334.8260 0001110  93.5254 266.5865 15.08850799 71065,6917.847,95.437,540.48,538.944,0.0
51113.0,STARLINK-3372,PAYLOAD,2023-04-22 20:41:08,15.08847771,0.0001509,53.2161,330.9598,81.7477,278.3687,0.00027401,4.076e-05,0.0,0 STARLINK-3372,1 51113U 22005K   23112.86190932  .00004076  00000-0  27401-3 0  9991,2 51113  53.2161 330.9598 0001509  81.7477 278.3687 15.08847771 71194,6917.857,95.437,540.766,538.678,0.0
51113.0,STARLINK-3372,PAYLOAD,2023-04-23 14:10:23,15.08836036,0.0001017,53.2166,327.6904,80.8838,279.2269,0.00012276,1.666e-05,0.0,0 STARLINK-3372,1 51113U 22005K   23113.59055286  .00001666  00000-0  12276-3 0  9990,2 51113  53.2166 327.6904 0001017  80.8838 279.2269 15.08836036 70195,6917.893,95.438,540.461,539.054,0.0
51113.0,STARLINK-3372,PAYLOAD,2023-04-23 17:21:10,15.08838354,0.0001063,53.2161,327.0965,76.8126,283.2985,0.00028179,4.2e-05,0.0,0 STARLINK-3372,1 51113U 22005K   23113.72303271  .00004200  00000-0  28179-3 0  9991,2 51113  53.2161 327.0965 0001063  76.8126 283.2985 15.08838354 70215,6917.885,95.438,540.486,539.015,0.0
51113.0,STARLINK-3372,PAYLOAD,2023-04-24 01:18:05,15.08855117,0.0001307,53.2155,325.61,75.7127,284.401,0.00092618,0.00014489,0.0,0 STARLINK-3372,1 51113U 22005K   23114.05423096  .00014489  00000-0  92618-3 0  9995,2 51113  53.2155 325.6100 0001307  75.7127 284.4010 15.08855117 71379,6917.834,95.437,540.603,538.795,0.0
51113.0,STARLINK-3372,PAYLOAD,2023-04-24 14:01:09,15.08886299,0.0001457,53.2145,323.2294,86.508,273.6079,0.0018697,0.00029632,0.0,0 STARLINK-3372,1 51113U 22005K   23114.58414322  .00029632  00000-0  18697-2 0  9995,2 51113  53.2145 323.2294 0001457  86.5080 273.6079 15.08886299 70346,6917.739,95.435,540.612,538.596,0.0
51113.0,STARLINK-3372,PAYLOAD,2023-04-24 17:11:55,15.0889573,0.0001438,53.2153,322.6343,98.8381,261.2774,0.0019366,0.00030715,0.0,0 STARLINK-3372,1 51113U 22005K   23114.71661769  .00030715  00000-0  19366-2 0  9997,2 51113  53.2153 322.6343 0001438  98.8381 261.2774 15.08895730 71472,6917.71,95.434,540.57,538.58,0.0
51113.0,STARLINK-3372,PAYLOAD,2023-04-25 01:08:50,15.08891239,0.0001548,53.2146,321.1476,94.3917,265.7252,0.0010755,0.00016894,0.0,0 STARLINK-3372,1 51113U 22005K   23115.04780864  .00016894  00000-0  10755-2 0  9997,2 51113  53.2146 321.1476 0001548  94.3917 265.7252 15.08891239 71529,6917.724,95.434,540.66,538.518,0.0
51113.0,STARLINK-3372,PAYLOAD,2023-04-26 13:42:47,15.0881211,0.0001126,53.2197,314.3169,345.2526,14.8433,0.0015229,0.00024013,0.0,0 STARLINK-3372,1 51113U 22005K   23116.57138195  .00024013  00000-0  15229-2 0  9993,2 51113  53.2197 314.3169 0001126 345.2526  14.8433 15.08812110 70641,6917.966,95.439,540.61,539.052,0.0
51113.0,STARLINK-3372,PAYLOAD,2023-04-26 20:04:19,15.08840365,0.0002709,53.2098,313.1174,115.0804,245.0469,0.0023275,0.00036951,0.0,0 STARLINK-3372,1 51113U 22005K   23116.83633802  .00036951  00000-0  23275-2 0  9991,2 51113  53.2098 313.1174 0002709 115.0804 245.0469 15.08840365 70688,6917.879,95.438,541.618,537.87,0.0
51113.0,STARLINK-3372,PAYLOAD,2023-04-27 05:36:37,15.08863003,0.0001142,53.2145,311.336,141.3187,218.7887,0.0010864,0.00017055,0.0,0 STARLINK-3372,1 51113U 22005K   23117.23376876  .00017055  00000-0  10864-2 0  9995,2 51113  53.2145 311.3360 0001142 141.3187 218.7887 15.08863003 70746,6917.81,95.436,540.465,538.885,0.0
51113.0,STARLINK-3372,PAYLOAD,2023-04-27 15:08:55,15.08863977,0.0001343,53.2157,309.5517,136.3005,223.8093,0.00033824,5.103e-05,0.0,0 STARLINK-3372,1 51113U 22005K   23117.63120288  .00005103  00000-0  33824-3 0  9996,2 51113  53.2157 309.5517 0001343 136.3005 223.8093 15.08863977 71914,6917.807,95.436,540.601,538.743,0.0
51113.0,STARLINK-3372,PAYLOAD,2023-04-28 05:27:24,15.08852184,0.0002008,53.2184,306.8814,104.7257,255.3957,-0.00019127,-3.332e-05,0.0,0 STARLINK-3372,1 51113U 22005K   23118.22736198 -.00003332  00000-0 -19127-3 0  9999,2 51113  53.2184 306.8814 0002008 104.7257 255.3957 15.08852184 72009,6917.843,95.437,541.097,538.319,0.0
51113.0,STARLINK-3372,PAYLOAD,2023-04-28 22:56:38,15.08844907,9.53e-05,53.2144,303.6031,115.1205,244.9886,-5.7088e-05,-1.196e-05,0.0,0 STARLINK-3372,1 51113U 22005K   23118.95599835 -.00001196  00000-0 -57088-4 0  9999,2 51113  53.2144 303.6031 0000953 115.1205 244.9886 15.08844907 72118,6917.865,95.437,540.39,539.071,0.0
51113.0,STARLINK-3372,PAYLOAD,2023-04-29 05:18:10,15.08843291,8.88e-05,53.2145,302.4132,111.4221,248.6866,-4.0043e-06,-3.51e-06,0.0,0 STARLINK-3372,1 51113U 22005K   23119.22095876 -.00000351  00000-0 -40043-5 0  9992,2 51113  53.2145 302.4132 0000888 111.4221 248.6866 15.08843291 71047,6917.87,95.437,540.35,539.121,0.0
51113.0,STARLINK-3372,PAYLOAD,2023-04-30 11:30:30,15.0884304,9.23e-05,53.2155,296.7627,126.5193,233.5884,0.00018161,2.604e-05,0.0,0 STARLINK-3372,1 51113U 22005K   23120.47951847  .00002604  00000-0  18161-3 0  9995,2 51113  53.2155 296.7627 0000923 126.5193 233.5884 15.08843040 72346,6917.871,95.437,540.375,539.098,0.0
51113.0,STARLINK-3372,PAYLOAD,2023-05-01 11:21:17,15.08840377,0.0001302,53.2141,292.3033,80.787,279.3269,0.00023157,3.399e-05,0.0,0 STARLINK-3372,1 51113U 22005K   23121.47312264  .00003399  00000-0  23157-3 0  9993,2 51113  53.2141 292.3033 0001302  80.7870 279.3269 15.08840377 72490,6917.879,95.438,540.645,538.844,0.0
51113.0,STARLINK-3372,PAYLOAD,2023-05-01 17:42:50,15.08837439,8.42e-05,53.2151,291.1166,84.4925,275.6163,8.2509e-05,1.026e-05,0.0,0 STARLINK-3372,1 51113U 22005K   23121.73808206  .00001026  00000-0  82509-4 0  9990,2 51113  53.2151 291.1166 0000842  84.4925 275.6163 15.08837439 71424,6917.888,95.438,540.336,539.171,0.0
51113.0,STARLINK-3372,PAYLOAD,2023-05-02 12:47:27,15.08844432,7.51e-05,53.2149,287.5452,85.0903,275.0175,0.00019953,2.89e-05,0.0,0 STARLINK-3372,1 51113U 22005K   23122.53296072  .00002890  00000-0  19953-3 0  9993,2 51113  53.2149 287.5452 0000751  85.0903 275.0175 15.08844432 72654,6917.867,95.437,540.251,539.212,0.0
51113.0,STARLINK-3372,PAYLOAD,2023-05-02 17:33:37,15.08850193,8.62e-05,53.2156,286.6537,80.7169,279.3921,0.00030686,4.601e-05,0.0,0 STARLINK-3372,1 51113U 22005K   23122.73167875  .00004601  00000-0  30686-3 0  9991,2 51113  53.2156 286.6537 0000862  80.7169 279.3921 15.08850193 71572,6917.849,95.437,540.311,539.118,0.0
51113.0,STARLINK-3372,PAYLOAD,2023-05-02 20:44:23,15.08853897,8.76e-05,53.2161,286.0595,77.4489,282.6601,0.00037138,5.63e-05,0.0,0 STARLINK-3372,1 51113U 22005K   23122.86415713  .00005630  00000-0  37138-3 0  9994,2 51113  53.2161 286.0595 0000876  77.4489 282.6601 15.08853897 72701,6917.838,95.437,540.309,539.097,0.0
51113.0,STARLINK-3372,PAYLOAD,2023-05-03 14:13:38,15.08841199,7.54e-05,53.2159,282.7877,81.7696,278.3382,9.765e-05,1.267e-05,0.0,0 STARLINK-3372,1 51113U 22005K   23123.59280163  .00001267  00000-0  97650-4 0  9992,2 51113  53.2159 282.7877 0000754  81.7696 278.3382 15.08841199 71706,6917.877,95.437,540.263,539.22,0.0
51113.0,STARLINK-3372,PAYLOAD,2023-05-03 15:49:01,15.08841708,7.72e-05,53.2159,282.4904,79.6953,280.4127,0.00010646,1.407e-05,0.0,0 STARLINK-3372,1 51113U 22005K   23123.65904150  .00001407  00000-0  10646-3 0  9993,2 51113  53.2159 282.4904 0000772  79.6953 280.4127 15.08841708 72827,6917.875,95.437,540.274,539.206,0.0
51113.0,STARLINK-3372,PAYLOAD,2023-05-03 20:35:10,15.0884527,8.31e-05,53.2155,281.5975,72.3455,287.7628,0.00017449,2.491e-05,0.0,0 STARLINK-3372,1 51113U 22005K   23123.85776024  .00002491  00000-0  17449-3 0  9994,2 51113  53.2155 281.5975 0000831  72.3455 287.7628 15.08845270 71748,6917.864,95.437,540.304,539.154,0.0
51113.0,STARLINK-3372,PAYLOAD,2023-05-04 14:04:24,15.08843714,4.97e-05,53.2165,278.3273,73.5363,286.5684,0.00017966,2.573e-05,0.0,0 STARLINK-3372,1 51113U 22005K   23124.58639899  .00002573  00000-0  17966-3 0  9998,2 51113  53.2165 278.3273 0000497  73.5363 286.5684 15.08843714 71855,6917.869,95.437,540.078,539.39,0.0
51113.0,STARLINK-3372,PAYLOAD,2023-05-04 17:15:11,15.08847471,7.36e-05,53.2154,277.7308,77.2338,282.8737,0.00028164,4.198e-05,0.0,0 STARLINK-3372,1 51113U 22005K   23124.71887832  .00004198  00000-0  28164-3 0  9992,2 51113  53.2154 277.7308 0000736  77.2338 282.8737 15.08847471 72981,6917.858,95.437,540.232,539.213,0.0
51113.0,STARLINK-3372,PAYLOAD,2023-05-05 02:47:29,15.08838247,3.62e-05,53.2164,275.9473,114.7763,245.3267,0.00015699,2.212e-05,0.0,0 STARLINK-3372,1 51113U 22005K   23125.11631869  .00002212  00000-0  15699-3 0  9998,2 51113  53.2164 275.9473 0000362 114.7763 245.3267 15.08838247 73040,6917.886,95.438,540.001,539.5,0.0
51113.0,STARLINK-3372,PAYLOAD,2023-05-05 18:41:21,15.088369,8.33e-05,53.2152,272.9752,85.4199,274.6888,2.9864e-05,1.88e-06,0.0,0 STARLINK-3372,1 51113U 22005K   23125.77872211  .00000188  00000-0  29864-4 0  9998,2 51113  53.2152 272.9752 0000833  85.4199 274.6888 15.08836900 72030,6917.89,95.438,540.331,539.179,0.0
51113.0,STARLINK-3372,PAYLOAD,2023-05-06 02:38:17,15.08836003,0.0001044,53.2165,271.4899,86.452,273.6591,-3.8598e-06,-3.49e-06,0.0,0 STARLINK-3372,1 51113U 22005K   23126.10992624 -.00000349  00000-0 -38598-5 0  9993,2 51113  53.2165 271.4899 0001044  86.4520 273.6591 15.08836003 73196,6917.893,95.438,540.48,539.035,0.0
51113.0,STARLINK-3372,PAYLOAD,2023-05-06 15:21:22,15.08852181,7.3e-05,53.2148,269.1086,82.5855,277.522,0.00070939,0.00011024,0.0,0 STARLINK-3372,1 51113U 22005K   23126.63984384  .00011024  00000-0  70939-3 0  9998,2 51113  53.2148 269.1086 0000730  82.5855 277.5220 15.08852181 72161,6917.843,95.437,540.213,539.203,0.0
